OBJECT_NAME,OBJECT_ID,EPOCH,MEAN_MOTION,ECCENTRICITY,INCLINATION,RA_OF_ASC_NODE,ARG_OF_PERICENTER,MEAN_ANOMALY,EPHEMERIS_TYPE,CLASSIFICATION_TYPE,NORAD_CAT_ID,ELEMENT_SET_NO,REV_AT_EPOCH,BSTAR,MEAN_MOTION_DOT,MEAN_MOTION_DDOT
ONEWEB-0721,2023-068R,2026-06-24T04:13:43.117536,13.22469525,.00018834,86.6766,83.2859,77.6747,282.4597,0,U,56725,999,15886,.19648359E-3,.96E-6,0
ONEWEB-0015,2024-188A,2026-06-24T02:23:49.659648,13.11415784,.00020348,87.8883,19.7167,71.6117,288.5232,0,U,61594,999,8536,.16355079E-2,.592E-5,0
ONEWEB-0687,2024-188B,2026-06-24T05:12:21.258144,13.17648913,.00023039,87.9129,4.4774,83.7532,276.3862,0,U,61595,999,8682,-.69710468E-4,-.14E-6,0
ONEWEB-0688,2024-188C,2026-06-24T05:53:39.614496,13.17648952,.00023813,87.9127,4.4715,58.4415,301.6949,0,U,61596,999,8682,-.43315231E-4,-.4E-7,0
ONEWEB-0689,2024-188D,2026-06-24T03:12:37.562976,13.11415330,.00021169,87.8893,19.6694,89.8613,270.2757,0,U,61597,999,8536,-.13766125E-2,-.475E-5,0
ONEWEB-0690,2024-188E,2026-06-24T01:37:25.588128,13.11418376,.00011988,87.8894,19.6935,85.8222,274.3043,0,U,61598,999,8553,-.8818681E-3,-.3E-5,0
ONEWEB-0691,2024-188F,2026-06-24T03:19:57.917856,13.11419084,.00020253,87.8901,19.5886,77.3015,282.8339,0,U,61599,999,8539,-.11879988E-2,-.408E-5,0
ONEWEB-0692,2024-188G,2026-06-24T01:59:24.930816,13.11418180,.00021388,87.8883,19.7117,108.2987,251.8374,0,U,61600,999,8537,.79749902E-3,.295E-5,0
ONEWEB-0693,2024-188H,2026-06-24T06:10:40.266336,13.17648468,.00011124,87.9123,4.4889,78.9228,281.2029,0,U,61601,999,8681,.36470168E-4,.27E-6,0
ONEWEB-0695,2024-188J,2026-06-24T03:15:05.086656,13.11417420,.00022175,87.8876,19.6934,97.6299,262.5081,0,U,61602,999,8537,-.12220268E-2,-.42E-5,0
ONEWEB-0697,2024-188K,2026-06-24T02:11:37.536288,13.11417047,.00020474,87.8884,19.6923,108.7558,251.3792,0,U,61603,999,8535,.13657252E-2,.497E-5,0
ONEWEB-0698,2024-188L,2026-06-24T01:39:52.151904,13.11418139,.00013515,87.8882,19.7106,126.5488,233.5765,0,U,61604,999,8537,-.73545352E-3,-.248E-5,0
ONEWEB-0699,2024-188M,2026-06-24T03:55:51.434400,13.10402784,.00018127,87.8826,34.8762,105.5937,254.5391,0,U,61605,999,8422,-.80194096E-2,-.2787E-4,0
ONEWEB-0700,2024-188N,2026-06-24T03:58:17.042592,13.10414926,.00019617,87.8830,34.7856,102.5242,257.6105,0,U,61606,999,8421,-.3876112E-2,-.1341E-4,0
ONEWEB-0701,2024-188P,2026-06-24T02:32:44.065248,13.10360383,.00019758,87.8830,34.8884,110.6481,249.4859,0,U,61607,999,8421,.37633493E-2,.1326E-4,0
ONEWEB-0702,2024-188Q,2026-06-24T06:25:31.684512,13.11414614,.00023867,87.8899,19.5781,111.0850,249.0534,0,U,61608,999,8541,.22315077E-3,.92E-6,0
ONEWEB-0704,2024-188R,2026-06-24T04:05:37.043232,13.10391727,.00023243,87.8822,34.8638,108.6619,251.4761,0,U,61609,999,8420,-.33736413E-2,-.1165E-4,0
ONEWEB-0705,2024-188S,2026-06-24T04:12:55.656288,13.10371546,.00027172,87.8834,34.8691,91.6560,268.4878,0,U,61610,999,7637,-.20775341E-2,-.712E-5,0
ONEWEB-0706,2024-188T,2026-06-24T03:50:58.315488,13.10419026,.00014309,87.8788,34.8741,108.6092,251.5191,0,U,61611,999,8429,-.10174053E-1,-.354E-4,0
ONEWEB-0707,2024-188U,2026-06-24T04:00:43.762752,13.10411964,.00020151,87.8822,34.8692,98.8865,261.2491,0,U,61612,999,8423,-.557424E-2,-.1934E-4,0
ONEWEB-0708,2024-188V,2026-06-24T02:37:41.187936,13.10331993,.00024538,87.8837,34.8990,79.6200,280.5204,0,U,61613,999,8420,-.30467663E-3,-.94E-6,0
