ONEWEB-0721             
1 56725U 23068R   26175.17619349  .00000096  00000+0  19648-3 0  9990
2 56725  86.6766  83.2859 0001883  77.6747 282.4597 13.22469525158863
ONEWEB-0015             
1 61594U 24188A   26175.09988032  .00000592  00000+0  16355-2 0  9995
2 61594  87.8883  19.7167 0002034  71.6117 288.5232 13.11415784 85369
ONEWEB-0687             
1 61595U 24188B   26175.21691271 -.00000014  00000+0 -69710-4 0  9992
2 61595  87.9129   4.4774 0002303  83.7532 276.3862 13.17648913 86827
ONEWEB-0688             
1 61596U 24188C   26175.24559739 -.00000004  00000+0 -43315-4 0  9990
2 61596  87.9127   4.4715 0002381  58.4415 301.6949 13.17648952 86827
ONEWEB-0689             
1 61597U 24188D   26175.13376809 -.00000475  00000+0 -13766-2 0  9991
2 61597  87.8893  19.6694 0002116  89.8613 270.2757 13.11415330 85367
ONEWEB-0690             
1 61598U 24188E   26175.06765727 -.00000300  00000+0 -88187-3 0  9992
2 61598  87.8894  19.6935 0001198  85.8222 274.3043 13.11418376 85533
ONEWEB-0691             
1 61599U 24188F   26175.13886479 -.00000408  00000+0 -11880-2 0  9993
2 61599  87.8901  19.5886 0002025  77.3015 282.8339 13.11419084 85396
ONEWEB-0692             
1 61600U 24188G   26175.08292744  .00000295  00000+0  79750-3 0  9999
2 61600  87.8883  19.7117 0002138 108.2987 251.8374 13.11418180 85373
ONEWEB-0693             
1 61601U 24188H   26175.25741049  .00000027  00000+0  36470-4 0  9992
2 61601  87.9123   4.4889 0001112  78.9228 281.2029 13.17648468 86815
ONEWEB-0695             
1 61602U 24188J   26175.13547554 -.00000420  00000+0 -12220-2 0  9999
2 61602  87.8876  19.6934 0002217  97.6299 262.5081 13.11417420 85378
ONEWEB-0697             
1 61603U 24188K   26175.09140667  .00000497  00000+0  13657-2 0  9996
2 61603  87.8884  19.6923 0002047 108.7558 251.3792 13.11417047 85357
ONEWEB-0698             
1 61604U 24188L   26175.06935361 -.00000248  00000+0 -73545-3 0  9996
2 61604  87.8882  19.7106 0001351 126.5488 233.5765 13.11418139 85374
ONEWEB-0699             
1 61605U 24188M   26175.16378975 -.00002787  00000+0 -80194-2 0  9997
2 61605  87.8826  34.8762 0001812 105.5937 254.5391 13.10402784 84226
ONEWEB-0700             
1 61606U 24188N   26175.16547503 -.00001341  00000+0 -38761-2 0  9991
2 61606  87.8830  34.7856 0001961 102.5242 257.6105 13.10414926 84213
ONEWEB-0701             
1 61607U 24188P   26175.10606557  .00001326  00000+0  37633-2 0  9999
2 61607  87.8830  34.8884 0001975 110.6481 249.4859 13.10360383 84218
ONEWEB-0702             
1 61608U 24188Q   26175.26772783  .00000092  00000+0  22315-3 0  9993
2 61608  87.8899  19.5781 0002386 111.0850 249.0534 13.11414614 85419
ONEWEB-0704             
1 61609U 24188R   26175.17056763 -.00001165  00000+0 -33736-2 0  9999
2 61609  87.8822  34.8638 0002324 108.6619 251.4761 13.10391727 84207
ONEWEB-0705             
1 61610U 24188S   26175.17564417 -.00000712  00000+0 -20775-2 0  9997
2 61610  87.8834  34.8691 0002717  91.6560 268.4878 13.10371546 76376
ONEWEB-0706             
1 61611U 24188T   26175.16039717 -.00003540  00000+0 -10174-1 0  9990
2 61611  87.8788  34.8741 0001430 108.6092 251.5191 13.10419026 84298
ONEWEB-0707             
1 61612U 24188U   26175.16717318 -.00001934  00000+0 -55742-2 0  9997
2 61612  87.8822  34.8692 0002015  98.8865 261.2491 13.10411964 84239
ONEWEB-0708             
1 61613U 24188V   26175.10950449 -.00000094  00000+0 -30468-3 0  9991
2 61613  87.8837  34.8990 0002453  79.6200 280.5204 13.10331993 84209
